NORAD_CAT_ID,OBJECT_NAME,OBJECT_TYPE,EPOCH,MEAN_MOTION,ECCENTRICITY,INCLINATION,RA_OF_ASC_NODE,ARG_OF_PERICENTER,MEAN_ANOMALY,BSTAR,MEAN_MOTION_DOT,MEAN_MOTION_DDOT,TLE_LINE0,TLE_LINE1,TLE_LINE2,SEMIMAJOR_AXIS,PERIOD,APOGEE,PERIGEE,DECAYED
53728.0,STARLINK-4640,PAYLOAD,2024-05-03 18:22:29,15.08825221,0.000159,53.2173,43.9272,89.6457,270.4717,-0.00017635,-3.092e-05,0.0,0 STARLINK-4640,1 53728U 22107AE  24124.76561724 -.00003092  00000-0 -17635-3 0  9999,2 53728  53.2173  43.9272 0001590  89.6457 270.4717 15.08825221 92068,6917.926,95.438,540.891,538.691,0.0
53728.0,STARLINK-4640,PAYLOAD,2024-05-04 11:51:44,15.08829404,0.0001402,53.2171,40.6561,103.9758,256.139,0.00067395,0.00010451,0.0,0 STARLINK-4640,1 53728U 22107AE  24125.49426042  .00010451  00000-0  67395-3 0  9996,2 53728  53.2171  40.6561 0001402 103.9758 256.1390 15.08829404 92174,6917.913,95.438,540.748,538.808,0.0
53728.0,STARLINK-4640,PAYLOAD,2024-05-05 00:34:49,15.08855727,0.0001373,53.2175,38.2775,103.0322,257.0824,0.0016223,0.00025636,0.0,0 STARLINK-4640,1 53728U 22107AE  24126.02418055  .00025636  00000-0  16223-2 0  9995,2 53728  53.2175  38.2775 0001373 103.0322 257.0824 15.08855727 92251,6917.832,95.437,540.647,538.747,0.0
53728.0,STARLINK-4640,PAYLOAD,2024-05-05 18:04:03,15.08858587,0.0001336,53.2176,35.0059,105.4459,254.668,0.001007,0.00015783,0.0,0 STARLINK-4640,1 53728U 22107AE  24126.75281607  .00015783  00000-0  10070-2 0  9992,2 53728  53.2176  35.0059 0001336 105.4459 254.6680 15.08858587 92360,6917.824,95.436,540.613,538.764,0.0
53728.0,STARLINK-4640,PAYLOAD,2024-05-05 22:50:12,15.08854129,0.0001338,53.2178,34.1129,106.1854,253.9285,0.00050701,7.793e-05,0.0,0 STARLINK-4640,1 53728U 22107AE  24126.95153543  .00007793  00000-0  50701-3 0  9999,2 53728  53.2178  34.1129 0001338 106.1854 253.9285 15.08854129 92999,6917.837,95.437,540.628,538.777,0.0
53728.0,STARLINK-4640,PAYLOAD,2024-05-06 00:25:35,15.08862716,0.00013,53.2184,33.8173,93.2635,266.8506,0.00088366,0.00013812,0.0,0 STARLINK-4640,1 53728U 22107AE  24127.01777555  .00013812  00000-0  88366-3 0  9999,2 53728  53.2184  33.8173 0001300  93.2635 266.8506 15.08862716 92409,6917.811,95.436,540.575,538.777,0.0
53728.0,STARLINK-4640,PAYLOAD,2024-05-06 21:05:36,15.0885852,0.0001311,53.2177,29.951,93.8368,266.2774,0.00068415,0.00010623,0.0,0 STARLINK-4640,1 53728U 22107AE  24127.87889025  .00010623  00000-0  68415-3 0  9999,2 53728  53.2177  29.9510 0001311  93.8368 266.2774 15.08858520 92536,6917.824,95.436,540.596,538.782,0.0
53728.0,STARLINK-4640,PAYLOAD,2024-05-06 22:40:59,15.08855495,0.0001278,53.2183,29.6515,95.1918,264.922,0.00032841,4.945e-05,0.0,0 STARLINK-4640,1 53728U 22107AE  24127.94512907  .00004945  00000-0  32841-3 0  9993,2 53728  53.2183  29.6515 0001278  95.1918 264.9220 15.08855495 93140,6917.833,95.437,540.582,538.814,0.0
53728.0,STARLINK-4640,PAYLOAD,2024-05-07 09:48:40,15.08870329,0.0001205,53.2181,27.573,92.961,267.152,0.00044511,6.809e-05,0.0,0 STARLINK-4640,1 53728U 22107AE  24128.40879836  .00006809  00000-0  44511-3 0  9990,2 53728  53.2181  27.5730 0001205  92.9610 267.1520 15.08870329 93217,6917.788,95.436,540.486,538.819,0.0
53728.0,STARLINK-4640,PAYLOAD,2024-05-07 20:56:23,15.08825286,0.0001311,53.2175,25.4911,102.017,258.0969,-0.00030824,-5.188e-05,0.0,0 STARLINK-4640,1 53728U 22107AE  24128.87249618 -.00005188  00000-0 -30824-3 0  9993,2 53728  53.2175  25.4911 0001311 102.0170 258.0969 15.08825286 92688,6917.925,95.438,540.697,538.883,0.0
53728.0,STARLINK-4640,PAYLOAD,2024-05-07 22:31:46,15.08825557,0.000134,53.2177,25.1938,103.5613,256.5528,-0.00037391,-6.231e-05,0.0,0 STARLINK-4640,1 53728U 22107AE  24128.93873506 -.00006231  00000-0 -37391-3 0  9995,2 53728  53.2177  25.1938 0001340 103.5613 256.5528 15.08825557 93299,6917.925,95.438,540.717,538.863,0.0
53728.0,STARLINK-4640,PAYLOAD,2024-05-08 09:39:28,15.08837178,0.0001303,53.2175,23.114,108.0732,252.0403,0.00020776,3.02e-05,0.0,0 STARLINK-4640,1 53728U 22107AE  24129.40241455  .00003020  00000-0  20776-3 0  9990,2 53728  53.2175  23.1140 0001303 108.0732 252.0403 15.08837178 92767,6917.889,95.438,540.655,538.853,0.0
53728.0,STARLINK-4640,PAYLOAD,2024-05-08 22:22:34,15.08834951,0.0001409,53.2182,20.7366,118.2436,241.8698,0.00067831,0.00010522,0.0,0 STARLINK-4640,1 53728U 22107AE  24129.93234143  .00010522  00000-0  67831-3 0  9992,2 53728  53.2182  20.7366 0001409 118.2436 241.8698 15.08834951 93443,6917.896,95.438,540.736,538.786,0.0
53728.0,STARLINK-4640,PAYLOAD,2024-05-09 03:08:43,15.08829594,0.0001205,53.218,19.8421,105.0424,255.0701,0.00032808,4.936e-05,0.0,0 STARLINK-4640,1 53728U 22107AE  24130.13106387  .00004936  00000-0  32808-3 0  9992,2 53728  53.2180  19.8421 0001205 105.0424 255.0701 15.08829594 92872,6917.912,95.438,540.611,538.944,0.0
53728.0,STARLINK-4640,PAYLOAD,2024-05-09 09:30:16,15.08832236,0.000131,53.2185,18.6532,103.1277,256.9861,0.00045872,7.019e-05,0.0,0 STARLINK-4640,1 53728U 22107AE  24130.39602576  .00007019  00000-0  45872-3 0  9991,2 53728  53.2185  18.6532 0001310 103.1277 256.9861 15.08832236 93515,6917.904,95.438,540.675,538.863,0.0
53728.0,STARLINK-4640,PAYLOAD,2024-05-09 22:13:21,15.08842119,0.0001299,53.2181,16.2743,103.8624,256.2512,0.00044859,6.859e-05,0.0,0 STARLINK-4640,1 53728U 22107AE  24130.92594588  .00006859  00000-0  44859-3 0  9998,2 53728  53.2181  16.2743 0001299 103.8624 256.2512 15.08842119 93593,6917.874,95.437,540.638,538.84,0.0
53728.0,STARLINK-4640,PAYLOAD,2024-05-10 01:24:07,15.08852176,0.000133,53.2185,15.6798,104.8343,255.2797,0.00066126,0.00010255,0.0,0 STARLINK-4640,1 53728U 22107AE  24131.05842344  .00010255  00000-0  66126-3 0  9995,2 53728  53.2185  15.6798 0001330 104.8343 255.2797 15.08852176 93010,6917.843,95.437,540.628,538.788,0.0
53728.0,STARLINK-4640,PAYLOAD,2024-05-10 09:21:02,15.0886643,8.23e-05,53.2167,14.1938,88.6965,271.4121,0.00094001,0.00014715,0.0,0 STARLINK-4640,1 53728U 22107AE  24131.38961669  .00014715  00000-0  94001-3 0  9991,2 53728  53.2167  14.1938 0000823  88.6965 271.4121 15.08866430 93665,6917.8,95.436,540.234,539.095,0.0
53728.0,STARLINK-4640,PAYLOAD,2024-05-10 20:28:45,15.08845595,0.0001324,53.2175,12.1108,91.5028,268.6116,0.00023866,3.513e-05,0.0,0 STARLINK-4640,1 53728U 22107AE  24131.85330204  .00003513  00000-0  23866-3 0  9993,2 53728  53.2175  12.1108 0001324  91.5028 268.6116 15.08845595 93134,6917.863,95.437,540.644,538.812,0.0
53728.0,STARLINK-4640,PAYLOAD,2024-05-10 22:04:08,15.08851631,0.0001495,53.2184,11.8143,90.2201,269.8963,0.00044119,6.743e-05,0.0,0 STARLINK-4640,1 53728U 22107AE  24131.91954171  .00006743  00000-0  44119-3 0  9997,2 53728  53.2184  11.8143 0001495  90.2201 269.8963 15.08851631 93745,6917.845,95.437,540.744,538.676,0.0
53728.0,STARLINK-4640,PAYLOAD,2024-05-10 23:39:31,15.08859266,0.0001417,53.218,11.5165,89.373,270.7425,0.00068314,0.00010607,0.0,0 STARLINK-4640,1 53728U 22107AE  24131.98577973  .00010607  00000-0  68314-3 0  9992,2 53728  53.2180  11.5165 0001417  89.3730 270.7425 15.08859266 93153,6917.822,95.436,540.667,538.706,0.0
53728.0,STARLINK-4640,PAYLOAD,2024-05-11 09:11:48,15.08940032,0.0001021,53.2174,9.7297,93.168,266.9429,0.0039029,0.00062549,0.0,0 STARLINK-4640,1 53728U 22107AE  24132.38319914  .00062549  00000-0  39029-2 0  9998,2 53728  53.2174   9.7297 0001021  93.1680 266.9429 15.08940032 93219,6917.575,95.431,540.146,538.733,0.0
53728.0,STARLINK-4640,PAYLOAD,2024-05-11 21:54:51,15.0894818,0.0001715,53.2167,7.356,58.9592,301.1569,0.0033469,0.00053542,0.0,0 STARLINK-4640,1 53728U 22107AE  24132.91309228  .00053542  00000-0  33469-2 0  9999,2 53728  53.2167   7.3560 0001715  58.9592 301.1569 15.08948180 93296,6917.55,95.431,540.601,538.228,0.0
53728.0,STARLINK-4640,PAYLOAD,2024-05-12 01:05:38,15.08806249,0.0001739,53.2177,6.7563,87.476,272.6431,-0.0017954,-0.00028722,0.0,0 STARLINK-4640,1 53728U 22107AE  24133.04558565 -.00028722  00000-0 -17954-2 0  9999,2 53728  53.2177   6.7563 0001739  87.4760 272.6431 15.08806249 93315,6917.984,95.44,541.052,538.646,0.0
53728.0,STARLINK-4640,PAYLOAD,2024-05-12 09:02:35,15.08763044,0.0001889,53.2174,5.2719,79.6965,280.424,0.0016442,0.00025921,0.0,0 STARLINK-4640,1 53728U 22107AE  24133.37679989  .00025921  00000-0  16442-2 0  9996,2 53728  53.2174   5.2719 0001889  79.6965 280.4240 15.08763044 93966,6918.116,95.442,541.287,538.674,0.0
53728.0,STARLINK-4640,PAYLOAD,2024-05-12 21:45:43,15.08765545,0.0001618,53.2174,2.8908,90.6238,269.4939,0.0019872,0.00031415,0.0,0 STARLINK-4640,1 53728U 22107AE  24133.90674845  .00031415  00000-0  19872-2 0  9996,2 53728  53.2174   2.8908 0001618  90.6238 269.4939 15.08765545 94045,6918.108,95.442,541.092,538.854,0.0
53728.0,STARLINK-4640,PAYLOAD,2024-05-13 04:07:18,15.08678576,0.0001809,53.2178,1.702,86.4756,273.6443,0.00059058,9.082e-05,0.0,0 STARLINK-4640,1 53728U 22107AE  24134.17174155  .00009082  00000-0  59058-3 0  9991,2 53728  53.2178   1.7020 0001809  86.4756 273.6443 15.08678576 93483,6918.374,95.448,541.49,538.987,0.0
53728.0,STARLINK-4640,PAYLOAD,2024-05-13 21:36:32,15.08872222,0.0001188,53.217,358.4307,88.983,271.1298,0.0020468,0.00032466,0.0,0 STARLINK-4640,1 53728U 22107AE  24134.90037599  .00032466  00000-0  20468-2 0  9996,2 53728  53.2170 358.4307 0001188  88.9830 271.1298 15.08872222 94199,6917.782,95.436,540.469,538.825,0.0
53728.0,STARLINK-4640,PAYLOAD,2024-05-14 15:05:45,15.08879222,5.15e-05,53.2202,355.1616,54.3939,305.7101,0.0010407,0.00016331,0.0,0 STARLINK-4640,1 53728U 22107AE  24135.62900273  .00016331  00000-0  10407-2 0  9999,2 53728  53.2202 355.1616 0000515  54.3939 305.7101 15.08879222 94309,6917.761,95.435,539.982,539.269,0.0
53728.0,STARLINK-4640,PAYLOAD,2024-05-14 21:27:17,15.08887282,0.0001202,53.2178,353.9709,85.883,274.23,0.00099991,0.00015682,0.0,0 STARLINK-4640,1 53728U 22107AE  24135.89395470  .00015682  00000-0  99991-3 0  9999,2 53728  53.2178 353.9709 0001202  85.8830 274.2300 15.08887282 94343,6917.736,95.435,540.432,538.769,0.0
